NORAD_CAT_ID,OBJECT_NAME,OBJECT_TYPE,EPOCH,MEAN_MOTION,ECCENTRICITY,INCLINATION,RA_OF_ASC_NODE,ARG_OF_PERICENTER,MEAN_ANOMALY,BSTAR,MEAN_MOTION_DOT,MEAN_MOTION_DDOT,TLE_LINE0,TLE_LINE1,TLE_LINE2,SEMIMAJOR_AXIS,PERIOD,APOGEE,PERIGEE,DECAYED
52338.0,STARLINK-3815,PAYLOAD,2023-09-27 02:26:57,15.15032559,0.0002222,53.2163,253.1416,103.8782,256.246,-0.00042426,-8.32e-05,0.0,0 STARLINK-3815,1 52338U 22045H   23270.10205242 -.00008320  00000-0 -42426-3 0  9990,2 52338  53.2163 253.1416 0002222 103.8782 256.2460 15.15032559 80764,6899.017,95.047,522.415,519.349,0.0
52338.0,STARLINK-3815,PAYLOAD,2023-09-27 08:46:57,15.15020382,0.000209,53.2178,251.9508,93.9784,266.145,-0.00045123,-8.826e-05,0.0,0 STARLINK-3815,1 52338U 22045H   23270.36593913 -.00008826  00000-0 -45123-3 0  9991,2 52338  53.2178 251.9508 0002090  93.9784 266.1450 15.15020382 80807,6899.054,95.048,522.361,519.477,0.0
52338.0,STARLINK-3815,PAYLOAD,2023-09-28 02:11:57,15.14973133,0.0002085,53.2166,248.6557,105.6384,254.4841,-0.0004077,-7.994e-05,0.0,0 STARLINK-3815,1 52338U 22045H   23271.09164289 -.00007994  00000-0 -40770-3 0  9990,2 52338  53.2166 248.6557 0002085 105.6384 254.4841 15.14973133 80918,6899.197,95.051,522.501,519.624,0.0
52338.0,STARLINK-3815,PAYLOAD,2023-09-28 03:46:58,15.14970907,0.0002118,53.2168,248.3563,110.004,250.1183,-0.00041849,-8.197e-05,0.0,0 STARLINK-3815,1 52338U 22045H   23271.15761583 -.00008197  00000-0 -41849-3 0  9991,2 52338  53.2168 248.3563 0002118 110.0040 250.1183 15.14970907 80929,6899.204,95.051,522.53,519.608,0.0
52338.0,STARLINK-3815,PAYLOAD,2023-09-28 22:47:01,15.14916882,0.0002305,53.2179,244.7736,98.1858,261.9398,-0.00033674,-6.647e-05,0.0,0 STARLINK-3815,1 52338U 22045H   23271.94932221 -.00006647  00000-0 -33674-3 0  9992,2 52338  53.2179 244.7736 0002305  98.1858 261.9398 15.14916882 81048,6899.368,95.055,522.823,519.643,0.0
52338.0,STARLINK-3815,PAYLOAD,2023-09-29 08:17:04,15.14889221,0.0002252,53.2182,242.9807,96.159,263.9662,-0.00042514,-8.304e-05,0.0,0 STARLINK-3815,1 52338U 22045H   23272.34519106 -.00008304  00000-0 -42514-3 0  9995,2 52338  53.2182 242.9807 0002252  96.1590 263.9662 15.14889221 81102,6899.452,95.056,522.871,519.763,0.0
52338.0,STARLINK-3815,PAYLOAD,2023-09-30 03:17:11,15.14832243,0.0001966,53.2169,239.3892,98.3837,261.7381,-0.00043501,-8.476e-05,0.0,0 STARLINK-3815,1 52338U 22045H   23273.13694119 -.00008476  00000-0 -43501-3 0  9998,2 52338  53.2169 239.3892 0001966  98.3837 261.7381 15.14832243 81229,6899.625,95.06,522.846,520.133,0.0
52338.0,STARLINK-3815,PAYLOAD,2023-09-30 04:52:12,15.14830389,0.0002066,53.2172,239.0908,102.8155,257.3071,-0.00043852,-8.541e-05,0.0,0 STARLINK-3815,1 52338U 22045H   23273.20291979 -.00008541  00000-0 -43852-3 0  9995,2 52338  53.2172 239.0908 0002066 102.8155 257.3071 15.14830389 81231,6899.631,95.06,522.921,520.07,0.0
52338.0,STARLINK-3815,PAYLOAD,2023-09-30 14:22:17,15.148019,0.0002424,53.2182,237.2989,104.4052,255.7212,-0.00042495,-8.281e-05,0.0,0 STARLINK-3815,1 52338U 22045H   23273.59880912 -.00008281  00000-0 -42495-3 0  9991,2 52338  53.2182 237.2989 0002424 104.4052 255.7212 15.14801900 81295,6899.717,95.062,523.255,519.91,0.0
52338.0,STARLINK-3815,PAYLOAD,2023-10-01 01:27:21,15.1478193,0.0002312,53.2175,235.2098,109.6211,250.5033,-0.00033837,-6.653e-05,0.0,0 STARLINK-3815,1 52338U 22045H   23274.06066984 -.00006653  00000-0 -33837-3 0  9990,2 52338  53.2175 235.2098 0002312 109.6211 250.5033 15.14781930 81368,6899.778,95.063,523.238,520.047,0.0
52338.0,STARLINK-3815,PAYLOAD,2023-10-01 04:37:23,15.14775978,0.0002256,53.2178,234.6106,103.96,256.1646,-0.00035825,-7.025e-05,0.0,0 STARLINK-3815,1 52338U 22045H   23274.19263464 -.00007025  00000-0 -35825-3 0  9999,2 52338  53.2178 234.6106 0002256 103.9600 256.1646 15.14775978 81389,6899.796,95.064,523.217,520.104,0.0
52338.0,STARLINK-3815,PAYLOAD,2023-10-01 14:07:29,15.14757638,0.00022,53.2172,232.8173,107.9894,252.1341,-0.0004191,-8.161e-05,0.0,0 STARLINK-3815,1 52338U 22045H   23274.58853093 -.00008161  00000-0 -41910-3 0  9999,2 52338  53.2172 232.8173 0002200 107.9894 252.1341 15.14757638 81443,6899.851,95.065,523.234,520.198,0.0
52338.0,STARLINK-3815,PAYLOAD,2023-10-02 02:47:37,15.14725684,0.0002388,53.2177,230.4265,113.4464,246.6782,-0.00036781,-7.194e-05,0.0,0 STARLINK-3815,1 52338U 22045H   23275.11640174 -.00007194  00000-0 -36781-3 0  9998,2 52338  53.2177 230.4265 0002388 113.4464 246.6782 15.14725684 81528,6899.948,95.067,523.461,520.166,0.0
52338.0,STARLINK-3815,PAYLOAD,2023-10-02 05:57:39,15.14717622,0.0002667,53.2175,229.8287,118.046,242.0805,-0.00037856,-7.394e-05,0.0,0 STARLINK-3815,1 52338U 22045H   23275.24837196 -.00007394  00000-0 -37856-3 0  9990,2 52338  53.2175 229.8287 0002667 118.0460 242.0805 15.14717622 81540,6899.973,95.067,523.678,519.998,0.0
52338.0,STARLINK-3815,PAYLOAD,2023-10-02 13:52:45,15.14697066,0.00022,53.2176,228.3343,111.836,248.2868,-0.00034792,-6.816e-05,0.0,0 STARLINK-3815,1 52338U 22045H   23275.57829877 -.00006816  00000-0 -34792-3 0  9997,2 52338  53.2176 228.3343 0002200 111.8360 248.2868 15.14697066 81592,6900.035,95.069,523.418,520.382,0.0
52338.0,STARLINK-3815,PAYLOAD,2023-10-03 04:07:55,15.14671672,0.0002185,53.2177,225.6445,112.3969,247.7258,-0.00037987,-7.409e-05,0.0,0 STARLINK-3815,1 52338U 22045H   23276.17217189 -.00007409  00000-0 -37987-3 0  9999,2 52338  53.2177 225.6445 0002185 112.3969 247.7258 15.14671672 81681,6900.113,95.07,523.485,520.47,0.0
52338.0,STARLINK-3815,PAYLOAD,2023-10-03 13:38:03,15.14650945,0.0002171,53.2177,223.8511,112.0788,248.0438,-0.00040279,-7.832e-05,0.0,0 STARLINK-3815,1 52338U 22045H   23276.56809640 -.00007832  00000-0 -40279-3 0  9999,2 52338  53.2177 223.8511 0002171 112.0788 248.0438 15.14650945 81747,6900.175,95.071,523.538,520.542,0.0
52338.0,STARLINK-3815,PAYLOAD,2023-10-03 23:08:11,15.14631521,0.0002086,53.2177,222.0574,111.4174,248.7043,-0.00037226,-7.258e-05,0.0,0 STARLINK-3815,1 52338U 22045H   23276.96402297 -.00007258  00000-0 -37226-3 0  9990,2 52338  53.2177 222.0574 0002086 111.4174 248.7043 15.14631521 81809,6900.234,95.073,523.539,520.66,0.0
52338.0,STARLINK-3815,PAYLOAD,2023-10-04 05:28:17,15.14621315,0.0002086,53.2177,220.8625,112.3595,247.7621,-0.00034701,-6.785e-05,0.0,0 STARLINK-3815,1 52338U 22045H   23277.22797491 -.00006785  00000-0 -34701-3 0  9992,2 52338  53.2177 220.8625 0002086 112.3595 247.7621 15.14621315 81844,6900.265,95.073,523.57,520.691,0.0
52338.0,STARLINK-3815,PAYLOAD,2023-10-04 13:23:24,15.14609337,0.00021,53.2178,219.3676,111.1389,248.983,-0.00032026,-6.284e-05,0.0,0 STARLINK-3815,1 52338U 22045H   23277.55791729 -.00006284  00000-0 -32026-3 0  9998,2 52338  53.2178 219.3676 0002100 111.1389 248.9830 15.14609337 81899,6900.302,95.074,523.616,520.718,0.0
52338.0,STARLINK-3815,PAYLOAD,2023-10-05 02:03:35,15.14594315,0.0002047,53.2178,216.9763,112.342,247.7792,-0.00026636,-5.276e-05,0.0,0 STARLINK-3815,1 52338U 22045H   23278.08582710 -.00005276  00000-0 -26636-3 0  9995,2 52338  53.2178 216.9763 0002047 112.3420 247.7792 15.14594315 81970,6900.347,95.075,523.625,520.8,0.0
52338.0,STARLINK-3815,PAYLOAD,2023-10-05 13:08:45,15.14584759,0.0002085,53.2182,214.8837,109.2616,250.8604,-0.00015698,-3.235e-05,0.0,0 STARLINK-3815,1 52338U 22045H   23278.54774824 -.00003235  00000-0 -15698-3 0  9994,2 52338  53.2182 214.8837 0002085 109.2616 250.8604 15.14584759 82045,6900.376,95.076,523.68,520.803,0.0
52338.0,STARLINK-3815,PAYLOAD,2023-10-06 01:48:57,15.14569858,0.000201,53.2181,212.493,112.7451,247.3756,-0.00013607,-2.844e-05,0.0,0 STARLINK-3815,1 52338U 22045H   23279.07566805 -.00002844  00000-0 -13607-3 0  9994,2 52338  53.2181 212.4930 0002010 112.7451 247.3756 15.14569858 82127,6900.422,95.076,523.674,520.9,0.0
52338.0,STARLINK-3815,PAYLOAD,2023-10-06 12:54:08,15.14558573,0.0001949,53.2182,210.4012,112.2668,247.8533,-0.0001042,-2.249e-05,0.0,0 STARLINK-3815,1 52338U 22045H   23279.53760034 -.00002249  00000-0 -10420-3 0  9994,2 52338  53.2182 210.4012 0001949 112.2668 247.8533 15.14558573 82199,6900.456,95.077,523.666,520.976,0.0
52338.0,STARLINK-3815,PAYLOAD,2023-10-07 01:34:21,15.14550752,0.0001944,53.2182,208.01,114.6484,245.4714,-0.00010097,-2.188e-05,0.0,0 STARLINK-3815,1 52338U 22045H   23280.06552414 -.00002188  00000-0 -10097-3 0  9997,2 52338  53.2182 208.0100 0001944 114.6484 245.4714 15.14550752 82272,6900.48,95.078,523.686,521.003,0.0
52338.0,STARLINK-3815,PAYLOAD,2023-10-07 12:39:32,15.14546767,0.0001889,53.218,205.9185,113.422,246.6974,-0.00010285,-2.223e-05,0.0,0 STARLINK-3815,1 52338U 22045H   23280.52745821 -.00002223  00000-0 -10285-3 0  9993,2 52338  53.2180 205.9185 0001889 113.4220 246.6974 15.14546767 82342,6900.492,95.078,523.66,521.053,0.0
52338.0,STARLINK-3815,PAYLOAD,2023-10-07 18:59:38,15.14544819,0.0001855,53.2186,204.7223,116.1498,243.9688,-6.2626e-05,-1.473e-05,0.0,0 STARLINK-3815,1 52338U 22045H   23280.79141832 -.00001473  00000-0 -62626-4 0  9997,2 52338  53.2186 204.7223 0001855 116.1498 243.9688 15.14544819 82380,6900.498,95.078,523.643,521.083,0.0
52338.0,STARLINK-3815,PAYLOAD,2023-10-08 12:24:55,15.14546723,0.0001855,53.2178,201.4356,113.7218,246.3972,8.1422e-06,-1.53e-06,0.0,0 STARLINK-3815,1 52338U 22045H   23281.51730774 -.00000153  00000-0  81422-5 0  9996,2 52338  53.2178 201.4356 0001855 113.7218 246.3972 15.14546723 82496,6900.492,95.078,523.637,521.077,0.0
52338.0,STARLINK-3815,PAYLOAD,2023-10-08 18:45:01,15.14551051,0.0001767,53.2177,200.2404,112.087,248.0313,8.4506e-05,1.272e-05,0.0,0 STARLINK-3815,1 52338U 22045H   23281.78126257  .00001272  00000-0  84506-4 0  9997,2 52338  53.2177 200.2404 0001767 112.0870 248.0313 15.14551051 82537,6900.479,95.078,523.563,521.125,0.0
52338.0,STARLINK-3815,PAYLOAD,2023-10-09 04:15:09,15.14562654,0.000165,53.218,198.447,109.7447,250.3725,0.00018735,3.193e-05,0.0,0 STARLINK-3815,1 52338U 22045H   23282.17719078  .00003193  00000-0  18735-3 0  9994,2 52338  53.2180 198.4470 0001650 109.7447 250.3725 15.14562654 82596,6900.444,95.077,523.447,521.17,0.0
